#cP2020  9  1  0  0  0.00000000      96 ORBIT IGb14 HLM  IGS
## 2121 172800.00000000   900.00000000 59093 0.0000000000000
+   31   G01G02G03G04G05G06G07G08G09G10G11G12G13G15G16G17G18
+        G19G20G21G22G23G24G25G26G27G28G29G30G31G32  0  0  0
+          0  0  0  0  0  0  0  0  0  0  0  0  0  0  0  0  0
+          0  0  0  0  0  0  0  0  0  0  0  0  0  0  0  0  0
+          0  0  0  0  0  0  0  0  0  0  0  0  0  0  0  0  0
++         2  2  2  2  2  2  2  2  5  2  2  2  2  2  2  2  2
++         2  2  2  2  3  2  2  2  2  1  2  2  2  2  0  0  0
++         0  0  0  0  0  0  0  0  0  0  0  0  0  0  0  0  0
++         0  0  0  0  0  0  0  0  0  0  0  0  0  0  0  0  0
++         0  0  0  0  0  0  0  0  0  0  0  0  0  0  0  0  0
%c G  cc GPS ccc cccc cccc cccc cccc ccccc ccccc ccccc ccccc
%c cc cc ccc ccc cccc cccc cccc cccc ccccc ccccc ccccc ccccc
%f  1.2500000  1.025000000  0.00000000000  0.000000000000000
%f  0.0000000  0.000000000  0.00000000000  0.000000000000000
%i    0    0    0    0      0      0      0      0         0
%i    0    0    0    0      0      0      0      0         0
/* FINAL ORBIT COMBINATION FROM WEIGHTED AVERAGE OF:        
/* cod emr esa gfz grg jpl mit ngs sio                      
/* REFERENCED TO IGS TIME (IGST) AND TO WEIGHTED MEAN POLE: 
/* PCV:IGS14_2118 OL/AL:FES2004  NONE     Y  ORB:CMB CLK:CMB
*  2020  9  1 17 15  0.00000000
PG01   6864.302702  13974.291780 -21800.418023     35.827678  5  5     77       
PG02  15599.905479 -14528.754764  16464.584624   -510.516089  6  6  5 110       
PG03  11821.580793  23119.255868  -5918.991380   -286.965884     6  6  81       
PG04   2862.603781  20625.691556  16474.350207   -131.186006  5 10  6  69       
PG05   5051.741502 -16533.915995  19961.141210    -20.150937  6  6  2 110       
PG06  25378.056185  -6145.287077   5019.891205   -321.673391  6  6  4  27       
PG07  22588.081561   7005.103845  12888.123432   -363.189161  2  4  6  37       
PG08  -4967.493645  24863.595449  -7434.279699    -46.503181  6  9  5  77       
PG09  12057.857699  10264.454827  21267.212505   -279.555278  6 13  8  92       
PG10 -18961.134930  -4839.672786 -17985.061610   -443.377131  4  4  5 103       
PG11  -2652.308242  19141.377998 -18836.056215   -176.336344  6  7  4  75       
PG12  -9258.335546 -23969.652307  -7255.825370     72.859120  7  8  6  81       
PG13  13205.878325 -22965.645668   -853.344838     41.225664  5  5  5  93       
PG15   1496.216354 -25103.464651  -8263.763130   -206.631389  6  7  5  90       
PG16  -4492.665526  17506.800771  19079.459965   -203.431766  6  7  3  89       
PG17  17447.153496  -7769.260345 -18015.354560    319.658686  5  5  4  81       
PG18 -22814.929215  -6429.024379  12014.292752    281.932107  1  8  4  52       
PG19  18346.076729 -13784.364040 -13614.631336   -110.645609  2  7  4  69       
PG20 -21512.859532 -13487.916238  -8281.151959    526.849536  1  4  2  92       
PG21 -20110.932019  11931.896719 -11576.361350     42.322705  3  6  4 101       
PG22   6986.793129  22233.219803 -12677.366399   -758.754856  2  6  4  81       
PG23 -20086.392632 -13401.957429 -11105.247935 999999.999999
PG24  -4245.414079 -15334.241952 -21485.593197    -18.007530  4  7  4  93       
PG25 -17217.725328 -20167.199391   2907.435701     43.131549  4  7  4  67       
PG26 -14324.398161   6709.180860  21325.139632    271.468571  5  5  2  77       
PG27 -12449.525788  23020.759900   3142.302308   -385.404382  5  7  4  65       
PG28  17557.601269   4716.522192 -18726.850863    683.369760  4  6  5  85       
PG29  -8292.676172 -14006.833366  20936.622952   -185.544762  5  5  5 117       
PG30  26504.021612    247.619886   3088.633267   -293.627096  4  6  4  60       
PG31 -25023.948121   6799.270571   6721.762932    -65.972659  2  5  5  49       
PG32 -17475.687598   8955.700263 -17728.247376    340.701114  5  5  5 104       
*  2020  9  1 17 30  0.00000000
PG01   4430.814877  14312.159611 -22183.666495     35.828311  5  5     84       
PG02  17265.312302 -14713.102892  14430.050488   -510.520991  5  6  5 102       
PG03  11146.373418  22606.812559  -8617.567177   -286.975566     7  6  75       
PG04   1981.579530  22172.185132  14468.980968   -131.189842  5 10  6  74       
PG05   6649.079119 -14776.638334  20861.577268    -20.151827  6  6  3 101       
PG06  25805.458833  -6011.045428   2166.198671   -321.676754  6  6  4  56       
PG07  21089.643161   7379.017288  15046.193971   -363.196802  2  4  6  46       
PG08  -5442.841722  25428.273282  -4658.965469    -46.504297  6  8  4  45       
PG09  11129.854247  12487.381915  20573.143928   -279.560495  7 13  8  56       
PG10 -20066.441403  -6466.786849 -16217.173362   -443.386182  3  4  4 104       
PG11  -4381.970575  20146.481113 -17403.279637   -176.326673  6  7  3  63       
PG12  -8581.423615 -23283.440456  -9907.985084     72.854916  7  8  6  98       
PG13  13378.040582 -22776.840177   2022.737588     41.229519  4  4  5  97       
PG15   2041.031452 -25747.066713  -5605.557065   -206.628830  6  7  4 106       
PG16  -5841.560514  15632.178583  20328.113796   -203.436296  6  7  3  78       
PG17  16596.534245  -5711.993648 -19497.193136    319.663499  5  5  4  77       
PG18 -21342.629574  -6796.373756  14294.507502    281.938921  2  8  3  59       
PG19  17706.814704 -12273.509557 -15786.531872   -110.641121  2  6  3  77       
PG20 -21873.679965 -14243.727694  -5643.551764    526.849487     5  3  65       
PG21 -21431.334556  11927.798993  -9073.679556     42.326547  2  6  4 107       
PG22   5704.979606  21236.607475 -14801.466361   -758.751469  3  6  4  80       
PG23 -20624.926962 -14410.140241  -8557.255895 999999.999999
PG24  -1869.484890 -15807.646527 -21446.576678    -18.009479  4  7  3  78       
PG25 -17159.415701 -20459.601969     66.672095     43.136209  4  7  4  81       
PG26 -15844.154275   4828.611657  20773.046355    271.474403  4  5  2  62       
PG27 -12459.307365  22431.633335   5988.201806   -385.412490  5  7  5  45       
PG28  18606.006385   6609.683884 -17108.615128    683.366492  3  6  5  81       
PG29  -7204.907295 -16074.809326  19822.304448   -185.552032  6  5  4 110       
PG30  26036.520220    597.521395   5823.690608   -293.633608  4  6  5  77       
PG31 -25656.390796   6645.332210   3987.760821    -65.974989  2  5  5  73       
PG32 -16829.087932   6915.381093 -19211.954393    340.705565  5  5  6 117       
*  2020  9  1 17 45  0.00000000
PG01   1995.509192  14790.745988 -22194.054507     35.828953  4  6  1  99       
PG02  18692.399522 -14919.553890  12156.079707   -510.525635  5  6  5 103       
PG03  10249.153018  21908.801147 -11169.119852   -286.985228  2  7  5  83       
PG04   1266.204647  23536.495123  12214.312441   -131.193595  5 11  5  57       
PG05   8387.995851 -13043.422766  21397.127957    -20.152774  5  6  4  86       
PG06  25920.790166  -5835.037621   -724.670273   -321.680105  6  5  5  51       
PG07  19390.598809   7872.935487  16956.020285   -363.204421  2  4  6  74       
PG08  -5790.587062  25711.168653  -1802.171701    -46.506491  6  8  4  83       
PG09  10345.923332  14660.320957  19523.275943   -279.565650  8 14  8  86       
PG10 -21112.942889  -7869.371510 -14171.391355   -443.395219  2  5  3 108       
PG11  -5928.245843  21122.394568 -15684.770546   -176.317480  5  7  3  73       
PG12  -7693.406396 -22406.150764 -12392.656887     72.850268  8  8  6 108       
PG13  13418.890141 -22304.506839   4863.726965     41.231809  4  4  5  89       
PG15   2492.315605 -26116.593002  -2849.467858   -206.626730  5  8  4 103       
PG16  -7359.800432  13735.882170  21216.557365   -203.440794  5  7  2  90       
PG17  15803.220024  -3469.156701 -20630.884523    319.668698  6  4  4  61       
PG18 -19651.047448  -7283.942447  16329.023913    281.945656  3  8  3  67       
PG19  17058.066782 -10522.822774 -17691.287407   -110.636440  3  6  3  91       
PG20 -22042.990489 -14784.498580  -2910.393802    526.849412     6  3  89       
PG21 -22458.307299  11913.962779  -6407.361302     42.330337  2  6  4  94       
PG22   4211.635144  20145.643134 -16669.297109   -758.747860  3  6  3  73       
PG23 -21013.697995 -15171.486113  -5862.242411 999999.999999
PG24    460.624924 -16390.514317 -21044.622997    -18.011312  5  7  2  87       
PG25 -16906.674874 -20513.513711  -2775.242995     43.140817  4  8  4  93       
PG26 -17397.386036   3087.655414  19863.831452    271.480303  4  6  2  65       
PG27 -12400.116774  21539.869698   8728.535343   -385.420712  5  7  5  85       
PG28  19631.582709   8275.365917 -15181.074247    683.362744  3  6  5  82       
PG29  -6290.158225 -18065.308394  18365.292365   -185.559583  6  5  4 108       
PG30  25289.425661   1019.669510   8459.927818   -293.640135  4  6  4  73       
PG31 -25990.392729   6472.035831   1186.944038    -65.977098  2  4  4  80       
PG32 -16241.141334   4703.173946 -20361.317732    340.710064  4  4  6 114       
EOF
